[{"OBJECT_NAME":"COSMOS 2251 DEB","OBJECT_ID":"1993-036AAV","EPOCH":"2026-03-07T06:11:30.926112","MEAN_MOTION":14.56826108,"ECCENTRICITY":0.0009669,"INCLINATION":74.0206,"RA_OF_ASC_NODE":9.1819,"ARG_OF_PERICENTER":89.3084,"MEAN_ANOMALY":65.5564,"EPHEMERIS_TYPE":0,"CLASSIFICATION_TYPE":"U","NORAD_CAT_ID":34792,"ELEMENT_SET_NO":999,"REV_AT_EPOCH":88880,"BSTAR":0.0014816,"MEAN_MOTION_DOT":6.618e-5,"MEAN_MOTION_DDOT":0},{"OBJECT_NAME":"COSMOS 2251 DEB","OBJECT_ID":"1993-036AAW","EPOCH":"2026-03-07T12:05:09.999744","MEAN_MOTION":14.38798543,"ECCENTRICITY":0.00526759,"INCLINATION":74.0004,"RA_OF_ASC_NODE":93.7485,"ARG_OF_PERICENTER":229.9666,"MEAN_ANOMALY":281.0167,"EPHEMERIS_TYPE":0,"CLASSIFICATION_TYPE":"U","NORAD_CAT_ID":34793,"ELEMENT_SET_NO":999,"REV_AT_EPOCH":88549,"BSTAR":0.00029461205,"MEAN_MOTION_DOT":8.93e-6,"MEAN_MOTION_DDOT":0},{"OBJECT_NAME":"COSMOS 2251 DEB","OBJECT_ID":"1993-036AAZ","EPOCH":"2026-03-07T10:25:38.324640","MEAN_MOTION":14.49226968,"ECCENTRICITY":0.00976255,"INCLINATION":74.0298,"RA_OF_ASC_NODE":57.4782,"ARG_OF_PERICENTER":140.4761,"MEAN_ANOMALY":348.1497,"EPHEMERIS_TYPE":0,"CLASSIFICATION_TYPE":"U","NORAD_CAT_ID":34796,"ELEMENT_SET_NO":999,"REV_AT_EPOCH":89254,"BSTAR":0.00068815198,"MEAN_MOTION_DOT":2.758e-5,"MEAN_MOTION_DDOT":0},{"OBJECT_NAME":"COSMOS 2251 DEB","OBJECT_ID":"1993-036ABA","EPOCH":"2026-03-05T01:55:41.880576","MEAN_MOTION":14.43889994,"ECCENTRICITY":0.00697838,"INCLINATION":73.9776,"RA_OF_ASC_NODE":306.4423,"ARG_OF_PERICENTER":40.381,"MEAN_ANOMALY":320.2497,"EPHEMERIS_TYPE":0,"CLASSIFICATION_TYPE":"U","NORAD_CAT_ID":34797,"ELEMENT_SET_NO":999,"REV_AT_EPOCH":88603,"BSTAR":0.0016676644,"MEAN_MOTION_DOT":5.835e-5,"MEAN_MOTION_DDOT":0},{"OBJECT_NAME":"COSMOS 2251 DEB","OBJECT_ID":"1993-036ABC","EPOCH":"2026-03-02T21:06:46.572480","MEAN_MOTION":13.50834009,"ECCENTRICITY":0.0436646,"INCLINATION":73.9354,"RA_OF_ASC_NODE":4.2405,"ARG_OF_PERICENTER":22.8061,"MEAN_ANOMALY":339.18,"EPHEMERIS_TYPE":0,"CLASSIFICATION_TYPE":"U","NORAD_CAT_ID":34813,"ELEMENT_SET_NO":999,"REV_AT_EPOCH":82737,"BSTAR":0.005914,"MEAN_MOTION_DOT":6.905e-5,"MEAN_MOTION_DDOT":0},{"OBJECT_NAME":"COSMOS 2251 DEB","OBJECT_ID":"1993-036ABD","EPOCH":"2026-03-07T07:59:25.901952","MEAN_MOTION":14.37316593,"ECCENTRICITY":0.0053646,"INCLINATION":73.8954,"RA_OF_ASC_NODE":168.5137,"ARG_OF_PERICENTER":36.4035,"MEAN_ANOMALY":21.2321,"EPHEMERIS_TYPE":0,"CLASSIFICATION_TYPE":"U","NORAD_CAT_ID":34814,"ELEMENT_SET_NO":999,"REV_AT_EPOCH":88548,"BSTAR":0.00088507,"MEAN_MOTION_DOT":2.658e-5,"MEAN_MOTION_DDOT":0},{"OBJECT_NAME":"COSMOS 2251 DEB","OBJECT_ID":"1993-036ABE","EPOCH":"2026-03-07T03:07:40.348704","MEAN_MOTION":14.79675396,"ECCENTRICITY":0.00536531,"INCLINATION":74.0431,"RA_OF_ASC_NODE":75.9157,"ARG_OF_PERICENTER":126.1505,"MEAN_ANOMALY":234.4653,"EPHEMERIS_TYPE":0,"CLASSIFICATION_TYPE":"U","NORAD_CAT_ID":34815,"ELEMENT_SET_NO":999,"REV_AT_EPOCH":89875,"BSTAR":0.00082500012,"MEAN_MOTION_DOT":6.318e-5,"MEAN_MOTION_DDOT":0},{"OBJECT_NAME":"COSMOS 2251 DEB","OBJECT_ID":"1993-036ABF","EPOCH":"2026-03-06T13:28:09.378624","MEAN_MOTION":13.58530613,"ECCENTRICITY":0.03705914,"INCLINATION":73.8911,"RA_OF_ASC_NODE":6.341,"ARG_OF_PERICENTER":55.623,"MEAN_ANOMALY":120.7048,"EPHEMERIS_TYPE":0,"CLASSIFICATION_TYPE":"U","NORAD_CAT_ID":34816,"ELEMENT_SET_NO":999,"REV_AT_EPOCH":83921,"BSTAR":0.0015309115,"MEAN_MOTION_DOT":1.729e-5,"MEAN_MOTION_DDOT":0},{"OBJECT_NAME":"COSMOS 2251 DEB","OBJECT_ID":"1993-036ABH","EPOCH":"2026-03-07T04:17:50.275104","MEAN_MOTION":14.37095659,"ECCENTRICITY":0.00250018,"INCLINATION":74.0358,"RA_OF_ASC_NODE":141.6692,"ARG_OF_PERICENTER":203.6563,"MEAN_ANOMALY":184.4397,"EPHEMERIS_TYPE":0,"CLASSIFICATION_TYPE":"U","NORAD_CAT_ID":34818,"ELEMENT_SET_NO":999,"REV_AT_EPOCH":88583,"BSTAR":0.00024696826,"MEAN_MOTION_DOT":7.1e-6,"MEAN_MOTION_DDOT":0},{"OBJECT_NAME":"COSMOS 2251 DEB","OBJECT_ID":"1993-036ABJ","EPOCH":"2026-03-07T12:57:25.771968","MEAN_MOTION":14.6543886,"ECCENTRICITY":0.00131087,"INCLINATION":74.0202,"RA_OF_ASC_NODE":339.4429,"ARG_OF_PERICENTER":52.6856,"MEAN_ANOMALY":124.7233,"EPHEMERIS_TYPE":0,"CLASSIFICATION_TYPE":"U","NORAD_CAT_ID":34819,"ELEMENT_SET_NO":999,"REV_AT_EPOCH":89470,"BSTAR":0.0019100075,"MEAN_MOTION_DOT":0.00010334,"MEAN_MOTION_DDOT":0},{"OBJECT_NAME":"COSMOS 2251 DEB","OBJECT_ID":"1993-036ABN","EPOCH":"2026-03-07T15:23:23.639712","MEAN_MOTION":14.55394032,"ECCENTRICITY":0.01531898,"INCLINATION":74.0406,"RA_OF_ASC_NODE":301.5004,"ARG_OF_PERICENTER":3.9779,"MEAN_ANOMALY":356.256,"EPHEMERIS_TYPE":0,"CLASSIFICATION_TYPE":"U","NORAD_CAT_ID":34823,"ELEMENT_SET_NO":999,"REV_AT_EPOCH":89616,"BSTAR":0.00053737502,"MEAN_MOTION_DOT":2.702e-5,"MEAN_MOTION_DDOT":0},{"OBJECT_NAME":"COSMOS 2251 DEB","OBJECT_ID":"1993-036ABP","EPOCH":"2026-03-03T03:17:02.818752","MEAN_MOTION":14.4604744,"ECCENTRICITY":0.0021056,"INCLINATION":74.0273,"RA_OF_ASC_NODE":358.2592,"ARG_OF_PERICENTER":144.6861,"MEAN_ANOMALY":215.5697,"EPHEMERIS_TYPE":0,"CLASSIFICATION_TYPE":"U","NORAD_CAT_ID":34845,"ELEMENT_SET_NO":999,"REV_AT_EPOCH":88628,"BSTAR":0.00031184096,"MEAN_MOTION_DOT":1.088e-5,"MEAN_MOTION_DDOT":0},{"OBJECT_NAME":"COSMOS 2251 DEB","OBJECT_ID":"1993-036ABQ","EPOCH":"2026-03-07T11:39:03.532320","MEAN_MOTION":14.47796406,"ECCENTRICITY":0.00240474,"INCLINATION":74.0283,"RA_OF_ASC_NODE":103.2215,"ARG_OF_PERICENTER":158.396,"MEAN_ANOMALY":201.822,"EPHEMERIS_TYPE":0,"CLASSIFICATION_TYPE":"U","NORAD_CAT_ID":34846,"ELEMENT_SET_NO":999,"REV_AT_EPOCH":88630,"BSTAR":0.00077029188,"MEAN_MOTION_DOT":2.833e-5,"MEAN_MOTION_DDOT":0},{"OBJECT_NAME":"COSMOS 2251 DEB","OBJECT_ID":"1993-036ABW","EPOCH":"2026-03-05T19:01:05.088000","MEAN_MOTION":14.37077362,"ECCENTRICITY":0.00169438,"INCLINATION":74.0311,"RA_OF_ASC_NODE":110.2232,"ARG_OF_PERICENTER":202.1926,"MEAN_ANOMALY":157.8496,"EPHEMERIS_TYPE":0,"CLASSIFICATION_TYPE":"U","NORAD_CAT_ID":34852,"ELEMENT_SET_NO":999,"REV_AT_EPOCH":88727,"BSTAR":0.00014740104,"MEAN_MOTION_DOT":4.12e-6,"MEAN_MOTION_DDOT":0},{"OBJECT_NAME":"COSMOS 2251 DEB","OBJECT_ID":"1993-036ABY","EPOCH":"2026-03-07T11:39:36.156096","MEAN_MOTION":14.77590714,"ECCENTRICITY":0.00624728,"INCLINATION":74.0325,"RA_OF_ASC_NODE":352.3301,"ARG_OF_PERICENTER":82.6434,"MEAN_ANOMALY":278.1835,"EPHEMERIS_TYPE":0,"CLASSIFICATION_TYPE":"U","NORAD_CAT_ID":34854,"ELEMENT_SET_NO":999,"REV_AT_EPOCH":73133,"BSTAR":0.00097959483,"MEAN_MOTION_DOT":7.205e-5,"MEAN_MOTION_DDOT":0},{"OBJECT_NAME":"COSMOS 2251 DEB","OBJECT_ID":"1993-036ACA","EPOCH":"2026-03-07T15:26:06.437184","MEAN_MOTION":15.11230377,"ECCENTRICITY":0.00294407,"INCLINATION":73.9903,"RA_OF_ASC_NODE":269.5415,"ARG_OF_PERICENTER":23.574,"MEAN_ANOMALY":50.7563,"EPHEMERIS_TYPE":0,"CLASSIFICATION_TYPE":"U","NORAD_CAT_ID":34856,"ELEMENT_SET_NO":999,"REV_AT_EPOCH":90392,"BSTAR":0.0022316145,"MEAN_MOTION_DOT":0.00038067,"MEAN_MOTION_DDOT":0}]
