COSMOS 2251 DEB         
1 34792U 93036AAV 26066.25799683  .00006618  00000+0  14816-2 0  9997
2 34792  74.0206   9.1819 0009669  89.3084  65.5564 14.56826108888800
COSMOS 2251 DEB         
1 34793U 93036AAW 26066.50358796  .00000893  00000+0  29461-3 0  9994
2 34793  74.0004  93.7485 0052675 229.9666 281.0167 14.38798543885495
COSMOS 2251 DEB         
1 34796U 93036AAZ 26066.43447135  .00002758  00000+0  68815-3 0  9993
2 34796  74.0298  57.4782 0097625 140.4761 348.1497 14.49226968892541
COSMOS 2251 DEB         
1 34797U 93036ABA 26064.08034584  .00005835  00000+0  16677-2 0  9990
2 34797  73.9776 306.4423 0069783  40.3810 320.2497 14.43889994886033
COSMOS 2251 DEB         
1 34813U 93036ABC 26061.87970570  .00006905  00000+0  59140-2 0  9998
2 34813  73.9354   4.2405 0436646  22.8061 339.1800 13.50834009827379
COSMOS 2251 DEB         
1 34814U 93036ABD 26066.33293868  .00002658  00000+0  88507-3 0  9994
2 34814  73.8954 168.5137 0053646  36.4035  21.2321 14.37316593885480
COSMOS 2251 DEB         
1 34815U 93036ABE 26066.13032811  .00006318  00000+0  82500-3 0  9996
2 34815  74.0431  75.9157 0053653 126.1505 234.4653 14.79675396898759
COSMOS 2251 DEB         
1 34816U 93036ABF 26065.56121966  .00001729  00000+0  15309-2 0  9996
2 34816  73.8911   6.3410 0370591  55.6230 120.7048 13.58530613839213
COSMOS 2251 DEB         
1 34818U 93036ABH 26066.17905411  .00000710  00000+0  24697-3 0  9991
2 34818  74.0358 141.6692 0025001 203.6563 184.4397 14.37095659885832
COSMOS 2251 DEB         
1 34819U 93036ABJ 26066.53988162  .00010334  00000+0  19100-2 0  9991
2 34819  74.0202 339.4429 0013108  52.6856 124.7233 14.65438860894706
COSMOS 2251 DEB         
1 34823U 93036ABN 26066.64124583  .00002702  00000+0  53738-3 0  9993
2 34823  74.0406 301.5004 0153189   3.9779 356.2560 14.55394032896161
COSMOS 2251 DEB         
1 34845U 93036ABP 26062.13683818  .00001088  00000+0  31184-3 0  9995
2 34845  74.0273 358.2592 0021056 144.6861 215.5697 14.46047440886288
COSMOS 2251 DEB         
1 34846U 93036ABQ 26066.48545755  .00002833  00000+0  77029-3 0  9992
2 34846  74.0283 103.2215 0024047 158.3960 201.8220 14.47796406886302
COSMOS 2251 DEB         
1 34852U 93036ABW 26064.79242000  .00000412  00000+0  14740-3 0  9990
2 34852  74.0311 110.2232 0016943 202.1926 157.8496 14.37077362887278
COSMOS 2251 DEB         
1 34854U 93036ABY 26066.48583514  .00007205  00000+0  97959-3 0  9998
2 34854  74.0325 352.3301 0062472  82.6434 278.1835 14.77590714731338
COSMOS 2251 DEB         
1 34856U 93036ACA 26066.64313006  .00038067  00000+0  22316-2 0  9999
2 34856  73.9903 269.5415 0029440  23.5740  50.7563 15.11230377903920
